{"type":"FeatureCollection","features":[
{"type":"Feature","geometry":{"type":"Point","coordinates":[18.0702333,59.3282356]},"properties":{"name":"Stockholms medeltidsmuseum","name:de":"Stockholmer Mittelaltermuseum","name:en":"Museum of Medieval Stockholm","name:fi":"Tukholman keskiaikamuseo","name:fr":"Musée du Stockholm médiéval","name:ru":"Музей средневековья","opening_hours":"Tu 12:00-17:00; Th-Su 12:00-17:00; We 12:00-20:00","tourism":"museum","website":"https://medeltidsmuseet.stockholm.se/","wikidata":"Q1632115","wikipedia":"sv:Medeltidsmuseet"}},
{"type":"Feature","geometry":{"type":"Point","coordinates":[18.0672245,59.327883]},"properties":{"barrier":"gate"}},
{"type":"Feature","geometry":{"type":"Point","coordinates":[18.0679398,59.3271]},"properties":{"barrier":"gate"}},
{"type":"Feature","geometry":{"type":"Point","coordinates":[18.0687979,59.3278583]},"properties":{"entrance":"yes"}},
{"type":"Feature","geometry":{"type":"Point","coordinates":[18.0683294,59.328229]},"properties":{"barrier":"bollard"}},
{"type":"Feature","geometry":{"type":"Point","coordinates":[18.0676592,59.3274899]},"properties":{"addr:city":"Stockholm","addr:country":"SE","addr:housenumber":"1","addr:street":"Riksgatan","entrance":"yes"}},
{"type":"Feature","geometry":{"type":"Point","coordinates":[18.0679451,59.3275248]},"properties":{"addr:city":"Stockholm","addr:country":"SE","addr:housenumber":"2","addr:street":"Riksgatan","entrance":"yes"}},
{"type":"Feature","geometry":{"type":"Point","coordinates":[18.0672119,59.3271891]},"properties":{"entrance":"yes"}},
{"type":"Feature","geometry":{"type":"Point","coordinates":[18.0709448,59.3284345]},"properties":{"whitewater":"put_in;egress"}},
{"type":"Feature","geometry":{"type":"Point","coordinates":[18.0675167,59.3277753]},"properties":{"barrier":"bollard","bicycle":"yes","bollard":"rising","foot":"yes"}},
{"type":"Feature","geometry":{"type":"Point","coordinates":[18.0681024,59.3271897]},"properties":{"barrier":"bollard","bicycle":"yes","bollard":"rising","foot":"yes"}},
{"type":"Feature","geometry":{"type":"Point","coordinates":[18.0673469,59.3277992]},"properties":{"addr:city":"Stockholm","addr:country":"SE","addr:housenumber":"3","addr:street":"Riksgatan","entrance":"yes"}},
{"type":"Feature","geometry":{"type":"Point","coordinates":[18.0681844,59.3271258]},"properties":{"highway":"turning_circle"}},
{"type":"Feature","geometry":{"type":"Point","coordinates":[18.0698721,59.3286739]},"properties":{"highway":"elevator"}},
{"type":"Feature","geometry":{"type":"Point","coordinates":[18.0707784,59.3283817]},"properties":{"artist_name":"Carl Milles","artwork_type":"statue","material":"bronze","name":"Solsångaren","name:ru":"Мальчик, смотрящий на Луну","start_date":"1926-10-21","tourism":"artwork","wikidata":"Q10673371","wikipedia":"sv:Solsångaren"}},
{"type":"Feature","geometry":{"type":"Point","coordinates":[18.070684,59.328073]},"properties":{"board_type":"history","check_date":"2021-07-21","information":"board","name":"Strömparterren","source":"survey","tourism":"information"}},
{"type":"Feature","geometry":{"type":"Point","coordinates":[18.0705479,59.3281175]},"properties":{"natural":"tree"}},
{"type":"Feature","geometry":{"type":"Point","coordinates":[18.0702349,59.3283969]},"properties":{"natural":"tree"}},
{"type":"Feature","geometry":{"type":"Point","coordinates":[18.0700193,59.3285879]},"properties":{"natural":"tree"}},
{"type":"Feature","geometry":{"type":"Point","coordinates":[18.0704369,59.3285365]},"properties":{"natural":"tree"}},
{"type":"Feature","geometry":{"type":"Point","coordinates":[18.0707559,59.3279311]},"properties":{"natural":"tree"}},
{"type":"Feature","geometry":{"type":"Point","coordinates":[18.0701252,59.3284924]},"properties":{"natural":"tree"}},
{"type":"Feature","geometry":{"type":"Point","coordinates":[18.0706827,59.3280188]},"properties":{"natural":"tree"}},
{"type":"Feature","geometry":{"type":"Point","coordinates":[18.0708527,59.3281023]},"properties":{"natural":"tree"}},
{"type":"Feature","geometry":{"type":"Point","coordinates":[18.0699407,59.3286391]},"properties":{"natural":"tree"}},
{"type":"Feature","geometry":{"type":"Point","coordinates":[18.069965,59.3286856]},"properties":{"amenity":"cafe","description":"outdoor cafe","name":"Koloni Strömparterren","opening_hours":"Mo-Su 11:00-sunset","organic":"yes","website":"http://koloni.se/"}},
{"type":"Feature","geometry":{"type":"Point","coordinates":[18.069977,59.3286615]},"properties":{"addr:city":"Stockholm","addr:country":"SE","addr:housenumber":"5","addr:street":"Strömparterren"}},
{"type":"Feature","geometry":{"type":"Point","coordinates":[18.0691406,59.3282442]},"properties":{"amenity":"bench","backrest":"yes"}},
{"type":"Feature","geometry":{"type":"Point","coordinates":[18.0705553,59.3280076]},"properties":{"amenity":"bench","backrest":"yes","survey:date":"2021-07-21"}},
{"type":"Feature","geometry":{"type":"Point","coordinates":[18.0710667,59.3280657]},"properties":{"emergency":"life_ring","survey:date":"2021-07-21"}},
{"type":"Feature","geometry":{"type":"Point","coordinates":[18.0709751,59.328097]},"properties":{"artwork_type":"sculpture","name":"Dimman","survey:date":"2021-07-21","tourism":"artwork"}},
{"type":"Feature","geometry":{"type":"Point","coordinates":[18.0704477,59.3281007]},"properties":{"amenity":"bench","backrest":"yes","survey:date":"2021-07-21"}},
{"type":"Feature","geometry":{"type":"Point","coordinates":[18.0700804,59.328407]},"properties":{"amenity":"waste_basket","survey:date":"2021-07-21"}},
{"type":"Feature","geometry":{"type":"Point","coordinates":[18.0705041,59.3280531]},"properties":{"amenity":"waste_basket","survey:date":"2021-07-21"}},
{"type":"Feature","geometry":{"type":"Point","coordinates":[18.0701488,59.3283562]},"properties":{"amenity":"bench","survey:date":"2021-07-21"}},
{"type":"Feature","geometry":{"type":"Point","coordinates":[18.0700358,59.3284497]},"properties":{"amenity":"bench","survey:date":"2021-07-21"}},
{"type":"Feature","geometry":{"type":"LineString","coordinates":[[18.06812,59.327173],[18.068154,59.3271426],[18.0681844,59.3271258]]},"properties":{"bicycle":"yes","highway":"pedestrian","lit":"yes","name":"Riksgatan","surface":"sett","wikidata":"Q7334099","wikipedia":"sv:Riksgatan"}},
{"type":"Feature","geometry":{"type":"LineString","coordinates":[[18.0673369,59.327962],[18.0675928,59.3280475]]},"properties":{"handrail":"yes","highway":"steps","lit":"yes","name":"Norra Helgeandstrappan","ramp":"no"}},
{"type":"Feature","geometry":{"type":"LineString","coordinates":[[18.0684877,59.3271415],[18.0682412,59.3270801]]},"properties":{"handrail":"yes","highway":"steps","incline":"down","lit":"yes","name":"Södra Helgeandstrappan","ramp":"no","step_count":"12","surface":"sett"}},
{"type":"Feature","geometry":{"type":"LineString","coordinates":[[18.0675928,59.3280475],[18.0683294,59.328229],[18.0685495,59.3282894]]},"properties":{"highway":"footway","lit":"yes"}},
{"type":"Feature","geometry":{"type":"LineString","coordinates":[[18.0674329,59.3278639],[18.0675167,59.3277753]]},"properties":{"bicycle":"yes","highway":"pedestrian","lit":"yes","name":"Riksgatan","surface":"paving_stones","tunnel":"building_passage","wikidata":"Q7334099","wikipedia":"sv:Riksgatan"}},
{"type":"Feature","geometry":{"type":"LineString","coordinates":[[18.0672977,59.328002],[18.0673369,59.327962],[18.0673748,59.3279233],[18.0674329,59.3278639]]},"properties":{"bicycle":"yes","highway":"pedestrian","lit":"yes","motorcar":"yes","name":"Riksgatan","surface":"cobblestone","wikidata":"Q7334099","wikipedia":"sv:Riksgatan"}},
{"type":"Feature","geometry":{"type":"LineString","coordinates":[[18.0680404,59.3272489],[18.0681024,59.3271897],[18.06812,59.327173]]},"properties":{"bicycle":"yes","highway":"pedestrian","lit":"yes","name":"Riksgatan","surface":"paving_stones","tunnel":"building_passage","wikidata":"Q7334099","wikipedia":"sv:Riksgatan"}},
{"type":"Feature","geometry":{"type":"LineString","coordinates":[[18.0675167,59.3277753],[18.0680404,59.3272489]]},"properties":{"bicycle":"yes","highway":"pedestrian","lit":"yes","name":"Riksgatan","surface":"paving_stones","wikidata":"Q7334099","wikipedia":"sv:Riksgatan"}},
{"type":"Feature","geometry":{"type":"LineString","coordinates":[[18.0673748,59.3279233],[18.0672245,59.327883],[18.067131,59.3278384],[18.0670401,59.3277775],[18.0669442,59.3276916],[18.0668763,59.3276038],[18.0668473,59.3275296],[18.0668215,59.3274376],[18.0667958,59.3273676],[18.0668301,59.32728],[18.0669831,59.3271925],[18.0671946,59.3271443],[18.0675521,59.3270874],[18.0677785,59.3270774],[18.0678698,59.327081],[18.0679398,59.3271],[18.068154,59.3271426]]},"properties":{"highway":"service","name":"Bankkajen","wikidata":"Q4856367","wikipedia":"sv:Bankkajen"}},
{"type":"Feature","geometry":{"type":"LineString","coordinates":[[18.0679202,59.327123],[18.0679398,59.3271],[18.0679988,59.3270325]]},"properties":{"barrier":"fence"}},
{"type":"Feature","geometry":{"type":"LineString","coordinates":[[18.0672887,59.3278194],[18.0672245,59.327883],[18.0671729,59.3279688]]},"properties":{"barrier":"fence"}},
{"type":"Feature","geometry":{"type":"LineString","coordinates":[[18.0675074,59.3280652],[18.0692203,59.3285037]]},"properties":{"barrier":"wall"}},
{"type":"Feature","geometry":{"type":"LineString","coordinates":[[18.069585,59.3286063],[18.069686,59.3285197],[18.0699593,59.3282847],[18.0706033,59.3277336]]},"properties":{"highway":"tertiary","lanes":"2","lit":"yes","maxspeed":"50","maxspeed:type":"sign","name":"Norrbro","name:de":"Nordbrücke","name:en":"North Bridge","surface":"paving_stones","wikidata":"Q1568911","wikipedia":"sv:Norrbro"}},
{"type":"Feature","geometry":{"type":"LineString","coordinates":[[18.0698575,59.3285698],[18.0697997,59.3285529],[18.069686,59.3285197],[18.0695575,59.3284822]]},"properties":{"highway":"footway","lit":"yes","surface":"paving_stones"}},
{"type":"Feature","geometry":{"type":"LineString","coordinates":[[18.0706171,59.3278523],[18.0706754,59.3278731]]},"properties":{"highway":"footway","lit":"yes","surface":"paving_stones"}},
{"type":"Feature","geometry":{"type":"LineString","coordinates":[[18.0706754,59.3278731],[18.0704406,59.3280736]]},"properties":{"handrail":"yes","highway":"steps","incline":"down","lit":"yes","ramp":"no","step_count":"36","surface":"paving_stones"}},
{"type":"Feature","geometry":{"type":"LineString","coordinates":[[18.0704406,59.3280736],[18.0702469,59.3282437],[18.0700813,59.3283791]]},"properties":{"highway":"footway","lit":"yes","surface":"sett"}},
{"type":"Feature","geometry":{"type":"LineString","coordinates":[[18.0700813,59.3283791],[18.0698575,59.3285698]]},"properties":{"handrail":"yes","highway":"steps","incline":"up","lit":"yes","ramp":"no","surface":"paving_stones"}},
{"type":"Feature","geometry":{"type":"LineString","coordinates":[[18.0698428,59.3285364],[18.0706176,59.3278789]]},"properties":{"barrier":"wall"}},
{"type":"Feature","geometry":{"type":"LineString","coordinates":[[18.07025,59.3276764],[18.0701652,59.3276331],[18.0699351,59.3275475],[18.0694956,59.327418],[18.0694141,59.327404]]},"properties":{"highway":"footway","lit":"yes","surface":"pebblestone"}},
{"type":"Feature","geometry":{"type":"LineString","coordinates":[[18.0686165,59.3282183],[18.0685495,59.3282894]]},"properties":{"highway":"footway","lit":"yes","source":"Bing"}},
{"type":"Feature","geometry":{"type":"LineString","coordinates":[[18.0693965,59.3281182],[18.0694037,59.3282455],[18.0694045,59.3285043],[18.0694903,59.328541]]},"properties":{"highway":"footway","lit":"yes","name":"Riksplan","surface":"asphalt","wikidata":"Q10655261","wikipedia":"sv:Riksplan"}},
{"type":"Feature","geometry":{"type":"LineString","coordinates":[[18.0704383,59.327737],[18.07025,59.3276764]]},"properties":{"highway":"footway","lit":"yes","name":"Riksplan","surface":"pebblestone","wikidata":"Q10655261","wikipedia":"sv:Riksplan"}},
{"type":"Feature","geometry":{"type":"LineString","coordinates":[[18.0698194,59.328643],[18.0699154,59.328671],[18.0699099,59.3287],[18.0700766,59.3287035],[18.0702312,59.3286957],[18.0703705,59.3286733],[18.0705035,59.3286432],[18.0706305,59.3286058],[18.070751,59.3285537],[18.070866,59.3284867],[18.0708842,59.3284885],[18.0709448,59.3284345],[18.0710071,59.328379],[18.0710001,59.3283723],[18.0710476,59.3283115],[18.0710878,59.3282183],[18.0710968,59.3281273],[18.0710847,59.3280568],[18.0710527,59.3279881],[18.0710078,59.3279138],[18.0709089,59.3278244],[18.0708122,59.3277976],[18.0706925,59.3279012],[18.0706176,59.3278789],[18.0698428,59.3285364],[18.0699132,59.3285606],[18.0698194,59.328643]]},"properties":{"leisure":"park","name":"Strömparterren","source":"Bing","wikidata":"Q10682213","wikipedia":"sv:Strömparterren"}},
{"type":"Feature","geometry":{"type":"LineString","coordinates":[[18.0691985,59.3283797],[18.0693226,59.3284156]]},"properties":{"highway":"service","layer":"-1","maxheight":"3.2","source":"Bing","tunnel":"yes"}},
{"type":"Feature","geometry":{"type":"LineString","coordinates":[[18.0675074,59.3280652],[18.0675329,59.3281348],[18.0675558,59.3281601],[18.0676072,59.328219],[18.0676583,59.3282574],[18.0677731,59.3283079],[18.0678804,59.3283448],[18.0681379,59.3284141],[18.0683122,59.3284611],[18.0685214,59.3285131],[18.0691249,59.3285583],[18.0692203,59.3285037],[18.0675074,59.3280652]]},"properties":{"access":"private","leisure":"park","source":"Bing"}},
{"type":"Feature","geometry":{"type":"LineString","coordinates":[[18.0691683,59.3277645],[18.069287,59.3277448],[18.069386,59.3277432],[18.0701919,59.3277307]]},"properties":{"highway":"footway","lit":"yes","name":"Riksplan","surface":"pebblestone","wikidata":"Q10655261","wikipedia":"sv:Riksplan"}},
{"type":"Feature","geometry":{"type":"LineString","coordinates":[[18.0688635,59.3279702],[18.0693965,59.3281182],[18.0698282,59.3282467],[18.0699593,59.3282847]]},"properties":{"highway":"service","motor_vehicle":"private","name":"Riksplan","service":"driveway","source":"Bing","wikidata":"Q10655261","wikipedia":"sv:Riksplan"}},
{"type":"Feature","geometry":{"type":"LineString","coordinates":[[18.0693553,59.327464],[18.0693195,59.3275006]]},"properties":{"highway":"service","source":"Bing","surface":"asphalt"}},
{"type":"Feature","geometry":{"type":"LineString","coordinates":[[18.0700979,59.3280224],[18.0699346,59.3279779],[18.0693898,59.3278254],[18.0691683,59.3277645],[18.069084,59.3277439]]},"properties":{"highway":"footway","lit":"yes","name":"Riksplan","source":"Bing","surface":"asphalt","wikidata":"Q10655261","wikipedia":"sv:Riksplan"}},
{"type":"Feature","geometry":{"type":"LineString","coordinates":[[18.0687104,59.3282142],[18.0693702,59.3283838],[18.0692844,59.3284604],[18.0693836,59.3284905],[18.0694292,59.3284864],[18.0696867,59.3282744],[18.069684,59.3282621],[18.0696545,59.328247],[18.0697457,59.328169],[18.0697081,59.3281444],[18.0697081,59.3281033],[18.0698074,59.3280308],[18.0698771,59.3280076],[18.0699308,59.3280185],[18.0700139,59.3279432],[18.0700461,59.327946],[18.0700649,59.3279419],[18.0703967,59.32767],[18.0702305,59.3276174],[18.0701715,59.3276653],[18.0699833,59.3276042],[18.069802,59.327608],[18.0697537,59.3276012],[18.069507,59.3275328],[18.0695579,59.3274602],[18.0694399,59.3274233],[18.0687104,59.3282142]]},"properties":{"leisure":"park","name":"Riksplan","source":"Bing","wikidata":"Q10655261","wikipedia":"sv:Riksplan"}},
{"type":"Feature","geometry":{"type":"LineString","coordinates":[[18.0691754,59.3282474],[18.0694037,59.3282455]]},"properties":{"highway":"footway","lit":"yes","surface":"pebblestone"}},
{"type":"Feature","geometry":{"type":"LineString","coordinates":[[18.0681844,59.3271258],[18.0682412,59.3270801]]},"properties":{"bicycle":"yes","highway":"pedestrian","lit":"yes","name":"Riksgatan","surface":"sett","wikidata":"Q7334099","wikipedia":"sv:Riksgatan"}},
{"type":"Feature","geometry":{"type":"LineString","coordinates":[[18.0704589,59.3276892],[18.0704942,59.3277],[18.0706033,59.3277336],[18.0707173,59.3277686],[18.070752,59.3277793],[18.0708122,59.3277976],[18.0709089,59.3278244],[18.0710078,59.3279138],[18.0710527,59.3279881],[18.0710847,59.3280568],[18.0710968,59.3281273],[18.0710878,59.3282183],[18.0710476,59.3283115],[18.0710001,59.3283723],[18.0710071,59.328379],[18.0709448,59.3284345],[18.0708842,59.3284885],[18.070866,59.3284867],[18.070751,59.3285537],[18.0706305,59.3286058],[18.0705035,59.3286432],[18.0703705,59.3286733],[18.0702312,59.3286957],[18.0700766,59.3287035],[18.0699099,59.3287],[18.069891,59.3287015]]},"properties":{"natural":"coastline"}},
{"type":"Feature","geometry":{"type":"LineString","coordinates":[[18.0694291,59.3285609],[18.0691649,59.3287882]]},"properties":{"name":"Östersjön","natural":"coastline","source":"PGS"}},
{"type":"Feature","geometry":{"type":"LineString","coordinates":[[18.0697116,59.3286282],[18.0698721,59.3286739]]},"properties":{"highway":"footway","lit":"yes","surface":"paving_stones"}},
{"type":"Feature","geometry":{"type":"LineString","coordinates":[[18.0697997,59.3285529],[18.0697116,59.3286282],[18.0697,59.3286397]]},"properties":{"footway":"sidewalk","highway":"footway","lit":"yes","name":"Norrbro","surface":"paving_stones","wikidata":"Q1568911","wikipedia":"sv:Norrbro"}},
{"type":"Feature","geometry":{"type":"LineString","coordinates":[[18.0698282,59.3282467],[18.0695575,59.3284822],[18.0694903,59.328541]]},"properties":{"footway":"sidewalk","highway":"footway","lit":"yes","name":"Norrbro","surface":"paving_stones","wikidata":"Q1568911","wikipedia":"sv:Norrbro"}},
{"type":"Feature","geometry":{"type":"LineString","coordinates":[[18.0706925,59.3279012],[18.0708122,59.3277976]]},"properties":{"barrier":"wall"}},
{"type":"Feature","geometry":{"type":"LineString","coordinates":[[18.0699132,59.3285606],[18.0698194,59.328643],[18.0699154,59.328671],[18.0699099,59.3287]]},"properties":{"barrier":"wall"}},
{"type":"Feature","geometry":{"type":"LineString","coordinates":[[18.069891,59.3287015],[18.0697298,59.3286506],[18.0697,59.3286397],[18.069585,59.3286063],[18.0694599,59.3285699],[18.0694291,59.3285609]]},"properties":{"natural":"coastline"}},
{"type":"Feature","geometry":{"type":"LineString","coordinates":[[18.0691649,59.3287882],[18.069733,59.3289184]]},"properties":{"name":"Norrström","waterway":"river","wikidata":"Q1479784","wikipedia":"sv:Norrström"}},
{"type":"Feature","geometry":{"type":"LineString","coordinates":[[18.0694141,59.327404],[18.0693553,59.327464]]},"properties":{"highway":"footway","lit":"yes","surface":"asphalt"}},
{"type":"Feature","geometry":{"type":"LineString","coordinates":[[18.0704636,59.328265],[18.0707374,59.3283441],[18.0706995,59.3283782],[18.0704257,59.3282991],[18.0704636,59.328265]]},"properties":{"amenity":"fountain","natural":"water","source":"Bing","start_date":"1930s","water":"reflecting_pool"}},
{"type":"Feature","geometry":{"type":"LineString","coordinates":[[18.0694903,59.328541],[18.0694599,59.3285699]]},"properties":{"footway":"sidewalk","highway":"footway","lit":"yes","surface":"paving_stones"}},
{"type":"Feature","geometry":{"type":"LineString","coordinates":[[18.0693195,59.3275006],[18.0691581,59.3276654],[18.069084,59.3277439],[18.0688635,59.3279702],[18.0686165,59.3282183],[18.0691985,59.3283797]]},"properties":{"highway":"service","name":"Riksplan","source":"Bing","wikidata":"Q10655261","wikipedia":"sv:Riksplan"}},
{"type":"Feature","geometry":{"type":"LineString","coordinates":[[18.0694141,59.327404],[18.0693465,59.3273924],[18.0684877,59.3271415]]},"properties":{"highway":"footway","lit":"yes","surface":"asphalt"}},
{"type":"Feature","geometry":{"type":"LineString","coordinates":[[18.0671729,59.3279688],[18.0672977,59.328002],[18.0674059,59.3280304]]},"properties":{"bridge:structure":"arch","layer":"1","man_made":"bridge","name":"Riksbron","name:ko":"릭스브론","wikidata":"Q7334096","wikipedia":"sv:Riksbron"}},
{"type":"Feature","geometry":{"type":"LineString","coordinates":[[18.0694291,59.3285609],[18.0694599,59.3285699],[18.069585,59.3286063],[18.0697,59.3286397],[18.0697298,59.3286506]]},"properties":{"bridge:structure":"arch","layer":"1","man_made":"bridge","name":"Norrbro","name:ko":"노르브로(노스 브릿지)"}},
{"type":"Feature","geometry":{"type":"LineString","coordinates":[[18.070752,59.3277793],[18.0707173,59.3277686],[18.0706033,59.3277336],[18.0704942,59.3277],[18.0704589,59.3276892],[18.070752,59.3277793]]},"properties":{"bridge:structure":"arch","layer":"1","man_made":"bridge","name":"Norrbro"}},
{"type":"Feature","geometry":{"type":"LineString","coordinates":[[18.0704374,59.3282269],[18.0709518,59.3283774]]},"properties":{"highway":"footway","lit":"yes","source":"Bing","surface":"fine_gravel"}},
{"type":"Feature","geometry":{"type":"LineString","coordinates":[[18.0703276,59.3283208],[18.0708124,59.3284715]]},"properties":{"highway":"footway","lit":"yes","source":"Bing","surface":"fine_gravel"}},
{"type":"Feature","geometry":{"type":"LineString","coordinates":[[18.07019,59.3286764],[18.0703785,59.3286509],[18.0705,59.3286226],[18.0706026,59.3285833],[18.070725,59.3285287],[18.0708124,59.3284715]]},"properties":{"highway":"footway","lit":"yes","source":"Bing","surface":"fine_gravel"}},
{"type":"Feature","geometry":{"type":"LineString","coordinates":[[18.0685495,59.3282894],[18.0691816,59.3284562]]},"properties":{"highway":"footway","lit":"yes","surface":"pebblestone"}},
{"type":"Feature","geometry":{"type":"LineString","coordinates":[[18.0693195,59.3275006],[18.0693714,59.3275154],[18.069386,59.3277432]]},"properties":{"highway":"footway","lit":"yes","name":"Riksplan","surface":"asphalt","wikidata":"Q10655261","wikipedia":"sv:Riksplan"}},
{"type":"Feature","geometry":{"type":"LineString","coordinates":[[18.069386,59.3277432],[18.0693898,59.3278254]]},"properties":{"highway":"footway","lit":"yes","name":"Riksplan","surface":"asphalt","wikidata":"Q10655261","wikipedia":"sv:Riksplan"}},
{"type":"Feature","geometry":{"type":"LineString","coordinates":[[18.0693898,59.3278254],[18.0693965,59.3281182]]},"properties":{"highway":"footway","lit":"yes","name":"Riksplan","surface":"asphalt","wikidata":"Q10655261","wikipedia":"sv:Riksplan"}},
{"type":"Feature","geometry":{"type":"LineString","coordinates":[[18.07025,59.3276764],[18.0701919,59.3277307]]},"properties":{"highway":"footway","lit":"yes","name":"Riksplan","surface":"pebblestone","wikidata":"Q10655261","wikipedia":"sv:Riksplan"}},
{"type":"Feature","geometry":{"type":"LineString","coordinates":[[18.0701919,59.3277307],[18.0699346,59.3279779]]},"properties":{"highway":"footway","lit":"yes","name":"Riksplan","surface":"pebblestone","wikidata":"Q10655261","wikipedia":"sv:Riksplan"}},
{"type":"Feature","geometry":{"type":"LineString","coordinates":[[18.0704942,59.3277],[18.0704383,59.327737]]},"properties":{"footway":"sidewalk","highway":"footway","lit":"yes","name":"Norrbro","surface":"paving_stones","wikidata":"Q1568911","wikipedia":"sv:Norrbro"}},
{"type":"Feature","geometry":{"type":"LineString","coordinates":[[18.0704383,59.327737],[18.0700979,59.3280224]]},"properties":{"footway":"sidewalk","highway":"footway","lit":"yes","name":"Norrbro","surface":"paving_stones","wikidata":"Q1568911","wikipedia":"sv:Norrbro"}},
{"type":"Feature","geometry":{"type":"LineString","coordinates":[[18.0700979,59.3280224],[18.0698282,59.3282467]]},"properties":{"footway":"sidewalk","highway":"footway","lit":"yes","name":"Norrbro","surface":"paving_stones","wikidata":"Q1568911","wikipedia":"sv:Norrbro"}},
{"type":"Feature","geometry":{"type":"LineString","coordinates":[[18.0702469,59.3282437],[18.070372,59.3282805]]},"properties":{"highway":"footway","lit":"yes","source":"Bing"}},
{"type":"Feature","geometry":{"type":"LineString","coordinates":[[18.070372,59.3282805],[18.0703276,59.3283208],[18.0699831,59.3286267]]},"properties":{"highway":"footway","lit":"yes","source":"Bing","surface":"fine_gravel"}},
{"type":"Feature","geometry":{"type":"LineString","coordinates":[[18.0699831,59.3286267],[18.07019,59.3286764]]},"properties":{"highway":"footway","lit":"yes","source":"Bing"}},
{"type":"Feature","geometry":{"type":"LineString","coordinates":[[18.0708124,59.3284715],[18.0709518,59.3283774]]},"properties":{"highway":"footway","lit":"yes","source":"Bing","surface":"fine_gravel"}},
{"type":"Feature","geometry":{"type":"LineString","coordinates":[[18.0709518,59.3283774],[18.0710044,59.3283046],[18.0710506,59.3282094],[18.0710399,59.3281204],[18.0710211,59.328078],[18.0707341,59.3279836]]},"properties":{"highway":"footway","lit":"yes","source":"Bing","surface":"fine_gravel"}},
{"type":"Feature","geometry":{"type":"LineString","coordinates":[[18.0707341,59.3279836],[18.0704374,59.3282269],[18.070372,59.3282805]]},"properties":{"highway":"footway","lit":"yes","source":"Bing","surface":"fine_gravel"}},
{"type":"Feature","geometry":{"type":"LineString","coordinates":[[18.0707173,59.3277686],[18.0706171,59.3278523]]},"properties":{"footway":"sidewalk","highway":"footway","lit":"yes","name":"Norrbro","surface":"paving_stones","wikidata":"Q1568911","wikipedia":"sv:Norrbro"}},
{"type":"Feature","geometry":{"type":"LineString","coordinates":[[18.0706171,59.3278523],[18.0697997,59.3285529]]},"properties":{"footway":"sidewalk","highway":"footway","lit":"yes","name":"Norrbro","wikidata":"Q1568911","wikipedia":"sv:Norrbro"}},
{"type":"Feature","geometry":{"type":"MultiPolygon","coordinates":[[[[18.0668271,59.3273583],[18.0669513,59.3272321],[18.0670722,59.3272631],[18.0672119,59.3271891],[18.0673049,59.3271579],[18.0674071,59.3271393],[18.0675222,59.327124],[18.0676554,59.3271135],[18.0678088,59.3271111],[18.0678215,59.3271033],[18.0679202,59.327123],[18.0679998,59.3271419],[18.0679803,59.3271643],[18.0683427,59.3272579],[18.0684297,59.3271743],[18.0687022,59.3272548],[18.0687087,59.3272499],[18.0689602,59.3273217],[18.0689545,59.3273263],[18.069234,59.3274055],[18.0688707,59.3277593],[18.0688984,59.327766],[18.0687979,59.3278583],[18.0687144,59.3279412],[18.0686851,59.3279354],[18.0683943,59.3282185],[18.0675728,59.3280026],[18.0676625,59.3279098],[18.0672887,59.3278194],[18.0672198,59.3278015],[18.0671487,59.327781],[18.0670669,59.3277316],[18.0669956,59.3276803],[18.0669409,59.3276029],[18.0669159,59.3275411],[18.0669131,59.3274766],[18.0669548,59.3273944],[18.0668271,59.3273583]],[[18.0673803,59.327766],[18.0676341,59.3278327],[18.0679451,59.3275248],[18.0681917,59.3272808],[18.0679379,59.3272141],[18.0676592,59.3274899],[18.0673803,59.327766]]]]},"properties":{"alt_name:es":"Parlamento","amenity":"parliament","building":"yes","building:colour":"burlywood","building:levels":"4","description:en":"Seat of the parliament","government":"legislative","name":"Riksdagshuset","name:de":"Reichstagsgebäude","name:fi":"Valtiopäivätalo","name:sv":"Riksdagshuset","office":"government","roof:colour":"gray","start_date":"1905","wikidata":"Q1101073","wikipedia":"sv:Riksdagshuset i Stockholm"}},
{"type":"Feature","geometry":{"type":"MultiPolygon","coordinates":[[[[18.0698194,59.328643],[18.0699132,59.3285606],[18.0698428,59.3285364],[18.0706176,59.3278789],[18.0706925,59.3279012],[18.0708122,59.3277976],[18.0709089,59.3278244],[18.0710078,59.3279138],[18.0710527,59.3279881],[18.0710847,59.3280568],[18.0710968,59.3281273],[18.0710878,59.3282183],[18.0710476,59.3283115],[18.0710001,59.3283723],[18.0710071,59.328379],[18.0709448,59.3284345],[18.0708842,59.3284885],[18.070866,59.3284867],[18.070751,59.3285537],[18.0706305,59.3286058],[18.0705035,59.3286432],[18.0703705,59.3286733],[18.0702312,59.3286957],[18.0700766,59.3287035],[18.0699099,59.3287],[18.0699154,59.328671],[18.0698194,59.328643]]]]},"properties":{"leisure":"park","name":"Strömparterren","source":"Bing","wikidata":"Q10682213","wikipedia":"sv:Strömparterren"}},
{"type":"Feature","geometry":{"type":"MultiPolygon","coordinates":[[[[18.0675074,59.3280652],[18.0692203,59.3285037],[18.0691249,59.3285583],[18.0685214,59.3285131],[18.0683122,59.3284611],[18.0681379,59.3284141],[18.0678804,59.3283448],[18.0677731,59.3283079],[18.0676583,59.3282574],[18.0676072,59.328219],[18.0675558,59.3281601],[18.0675329,59.3281348],[18.0675074,59.3280652]]]]},"properties":{"access":"private","leisure":"park","source":"Bing"}},
{"type":"Feature","geometry":{"type":"MultiPolygon","coordinates":[[[[18.0687104,59.3282142],[18.0694399,59.3274233],[18.0695579,59.3274602],[18.069507,59.3275328],[18.0697537,59.3276012],[18.069802,59.327608],[18.0699833,59.3276042],[18.0701715,59.3276653],[18.0702305,59.3276174],[18.0703967,59.32767],[18.0700649,59.3279419],[18.0700461,59.327946],[18.0700139,59.3279432],[18.0699308,59.3280185],[18.0698771,59.3280076],[18.0698074,59.3280308],[18.0697081,59.3281033],[18.0697081,59.3281444],[18.0697457,59.328169],[18.0696545,59.328247],[18.069684,59.3282621],[18.0696867,59.3282744],[18.0694292,59.3284864],[18.0693836,59.3284905],[18.0692844,59.3284604],[18.0693702,59.3283838],[18.0687104,59.3282142]]]]},"properties":{"leisure":"park","name":"Riksplan","source":"Bing","wikidata":"Q10655261","wikipedia":"sv:Riksplan"}},
{"type":"Feature","geometry":{"type":"MultiPolygon","coordinates":[[[[18.0704257,59.3282991],[18.0704636,59.328265],[18.0707374,59.3283441],[18.0706995,59.3283782],[18.0704257,59.3282991]]]]},"properties":{"amenity":"fountain","natural":"water","source":"Bing","start_date":"1930s","water":"reflecting_pool"}}
]}
